start=new Date('2023-06-01T00:00:00.000Z').valueOf();
sats=[{"ELEMENT_SET_NO":"999","CENTER_NAME":"EARTH","SEMIMAJOR_AXIS":"6925.361","REV_AT_EPOCH":"18774","RCS_SIZE":"LARGE","RA_OF_ASC_NODE":"173.6489","TLE_LINE2":"2 44964  53.0545 173.6489 0001170  77.6819 282.4301 15.06395893187742","EPHEMERIS_TYPE":"0","ECCENTRICITY":"0.00011700","APOAPSIS":"548.036","OBJECT_ID":"2020-001BC","MEAN_MOTION_DOT":"0.00000599","MEAN_MOTION":"15.06395893","EPOCH":"2023-05-31T19:14:07.204128","ARG_OF_PERICENTER":"77.6819","DECAY_DATE":null,"LAUNCH_DATE":"2020-01-07","TLE_LINE1":"1 44964U 20001BC  23151.80147227  .00000599  00000-0  59128-4 0  9995","SITE":"AFETR","OBJECT_TYPE":"PAYLOAD","PERIAPSIS":"546.416","NORAD_CAT_ID":"44964","CLASSIFICATION_TYPE":"U","OBJECT_NAME":"STARLINK-1086","MEAN_ELEMENT_THEORY":"SGP4","MEAN_ANOMALY":"282.4301","PERIOD":"95.592","BSTAR":"0.00005912800000","INCLINATION":"53.0545","GP_ID":"232923715","COUNTRY_CODE":"US","MEAN_MOTION_DDOT":"0.0000000000000","REF_FRAME":"TEME","TIME_SYSTEM":"UTC","FILE":"3922037"},{"EPOCH":"2023-05-31T10:47:31.494048","ARG_OF_PERICENTER":"3.7898","OBJECT_ID":"2020-001BE","APOAPSIS":"523.002","MEAN_MOTION":"15.14702663","MEAN_MOTION_DOT":"0.00007757","TLE_LINE1":"1 44966U 20001BE  23151.44967007  .00007757  00000-0  42985-3 0  9998","OBJECT_TYPE":"PAYLOAD","SITE":"AFETR","DECAY_DATE":null,"LAUNCH_DATE":"2020-01-07","OBJECT_NAME":"STARLINK-1088","PERIAPSIS":"520.765","CLASSIFICATION_TYPE":"U","NORAD_CAT_ID":"44966","TIME_SYSTEM":"UTC","MEAN_MOTION_DDOT":"0.0000000000000","REF_FRAME":"TEME","FILE":"3921767","MEAN_ANOMALY":"356.3106","MEAN_ELEMENT_THEORY":"SGP4","COUNTRY_CODE":"US","GP_ID":"232890459","BSTAR":"0.00042985000000","PERIOD":"95.068","INCLINATION":"53.0512","SEMIMAJOR_AXIS":"6900.018","CENTER_NAME":"EARTH","ELEMENT_SET_NO":"999","REV_AT_EPOCH":"18774","RA_OF_ASC_NODE":"171.3006","RCS_SIZE":"LARGE","EPHEMERIS_TYPE":"0","TLE_LINE2":"2 44966  53.0512 171.3006 0001621   3.7898 356.3106 15.14702663187746","ECCENTRICITY":"0.00016210"},{"RA_OF_ASC_NODE":"173.7523","RCS_SIZE":"LARGE","EPHEMERIS_TYPE":"0","TLE_LINE2":"2 44967  53.0546 173.7523 0000386  66.0504 294.0525 15.06397852187741","ECCENTRICITY":"0.00003860","SEMIMAJOR_AXIS":"6925.355","CENTER_NAME":"EARTH","ELEMENT_SET_NO":"999","REV_AT_EPOCH":"18774","OBJECT_NAME":"STARLINK-1089","PERIAPSIS":"546.953","CLASSIFICATION_TYPE":"U","NORAD_CAT_ID":"44967","TIME_SYSTEM":"UTC","REF_FRAME":"TEME","MEAN_MOTION_DDOT":"0.0000000000000","FILE":"3922037","MEAN_ELEMENT_THEORY":"SGP4","MEAN_ANOMALY":"294.0525","GP_ID":"232924217","COUNTRY_CODE":"US","PERIOD":"95.592","INCLINATION":"53.0546","BSTAR":"0.00007331600000","EPOCH":"2023-05-31T18:42:15.858144","ARG_OF_PERICENTER":"66.0504","OBJECT_ID":"2020-001BF","APOAPSIS":"547.487","MEAN_MOTION_DOT":"0.00000811","MEAN_MOTION":"15.06397852","TLE_LINE1":"1 44967U 20001BF  23151.77935021  .00000811  00000-0  73316-4 0  9993","OBJECT_TYPE":"PAYLOAD","SITE":"AFETR","DECAY_DATE":null,"LAUNCH_DATE":"2020-01-07"},{"REV_AT_EPOCH":"18774","CENTER_NAME":"EARTH","SEMIMAJOR_AXIS":"6925.363","ELEMENT_SET_NO":"999","TLE_LINE2":"2 44968  53.0540 173.7654 0000941  94.0593 266.0503 15.06395293187749","EPHEMERIS_TYPE":"0","ECCENTRICITY":"0.00009410","RCS_SIZE":"LARGE","RA_OF_ASC_NODE":"173.7654","TLE_LINE1":"1 44968U 20001BG  23151.77566761  .00000319  00000-0  40317-4 0  9993","SITE":"AFETR","OBJECT_TYPE":"PAYLOAD","DECAY_DATE":null,"LAUNCH_DATE":"2020-01-07","EPOCH":"2023-05-31T18:36:57.681504","ARG_OF_PERICENTER":"94.0593","APOAPSIS":"547.880","OBJECT_ID":"2020-001BG","MEAN_MOTION_DOT":"0.00000319","MEAN_MOTION":"15.06395293","REF_FRAME":"TEME","MEAN_MOTION_DDOT":"0.0000000000000","TIME_SYSTEM":"UTC","FILE":"3922037","MEAN_ELEMENT_THEORY":"SGP4","MEAN_ANOMALY":"266.0503","PERIOD":"95.592","INCLINATION":"53.0540","BSTAR":"0.00004031700000","GP_ID":"232924468","COUNTRY_CODE":"US","OBJECT_NAME":"STARLINK-1090","PERIAPSIS":"546.576","NORAD_CAT_ID":"44968","CLASSIFICATION_TYPE":"U"},{"ELEMENT_SET_NO":"999","SEMIMAJOR_AXIS":"6925.364","CENTER_NAME":"EARTH","REV_AT_EPOCH":"18773","RA_OF_ASC_NODE":"173.7966","RCS_SIZE":"LARGE","EPHEMERIS_TYPE":"0","TLE_LINE2":"2 44969  53.0537 173.7966 0001128  65.9921 294.1186 15.06394958187737","ECCENTRICITY":"0.00011280","OBJECT_ID":"2020-001BH","APOAPSIS":"548.010","MEAN_MOTION_DOT":"0.00001099","MEAN_MOTION":"15.06394958","EPOCH":"2023-05-31T18:26:20.821056","ARG_OF_PERICENTER":"65.9921","DECAY_DATE":null,"LAUNCH_DATE":"2020-01-07","TLE_LINE1":"1 44969U 20001BH  23151.76829654  .00001099  00000-0  92649-4 0  9997","OBJECT_TYPE":"PAYLOAD","SITE":"AFETR","PERIAPSIS":"546.448","CLASSIFICATION_TYPE":"U","NORAD_CAT_ID":"44969","OBJECT_NAME":"STARLINK-1092","MEAN_ELEMENT_THEORY":"SGP4","MEAN_ANOMALY":"294.1186","GP_ID":"232923216","COUNTRY_CODE":"US","BSTAR":"0.00009264900000","PERIOD":"95.592","INCLINATION":"53.0537","TIME_SYSTEM":"UTC","REF_FRAME":"TEME","MEAN_MOTION_DDOT":"0.0000000000000","FILE":"3922037"},{"REV_AT_EPOCH":"18766","ELEMENT_SET_NO":"999","SEMIMAJOR_AXIS":"6925.346","CENTER_NAME":"EARTH","ECCENTRICITY":"0.00009730","EPHEMERIS_TYPE":"0","TLE_LINE2":"2 44970  53.0539 175.6843 0000973 100.2582 259.8517 15.06400995187666","RCS_SIZE":"LARGE","RA_OF_ASC_NODE":"175.6843","LAUNCH_DATE":"2020-01-07","DECAY_DATE":null,"OBJECT_TYPE":"PAYLOAD","SITE":"AFETR","TLE_LINE1":"1 44970U 20001BJ  23151.34809323  .00000094  00000-0  25206-4 0  9993","MEAN_MOTION_DOT":"0.00000094","MEAN_MOTION":"15.06400995","OBJECT_ID":"2020-001BJ","APOAPSIS":"547.884","ARG_OF_PERICENTER":"100.2582","EPOCH":"2023-05-31T08:21:15.255072","GP_ID":"232890960","COUNTRY_CODE":"US","INCLINATION":"53.0539","PERIOD":"95.592","BSTAR":"0.00002520600000","MEAN_ELEMENT_THEORY":"SGP4","MEAN_ANOMALY":"259.8517","FILE":"3921767","TIME_SYSTEM":"UTC","MEAN_MOTION_DDOT":"0.0000000000000","REF_FRAME":"TEME","CLASSIFICATION_TYPE":"U","NORAD_CAT_ID":"44970","PERIAPSIS":"546.537","OBJECT_NAME":"STARLINK-1093"},{"LAUNCH_DATE":"2020-01-07","DECAY_DATE":null,"OBJECT_TYPE":"PAYLOAD","SITE":"AFETR","TLE_LINE1":"1 44972U 20001BL  23151.45130271  .00000496  00000-0  52191-4 0  9995","MEAN_MOTION":"15.06391926","MEAN_MOTION_DOT":"0.00000496","OBJECT_ID":"2020-001BL","APOAPSIS":"548.046","ARG_OF_PERICENTER":"94.8969","EPOCH":"2023-05-31T10:49:52.554144","GP_ID":"232889949","COUNTRY_CODE":"US","PERIOD":"95.593","INCLINATION":"53.0535","BSTAR":"0.00005219100000","MEAN_ANOMALY":"265.2153","MEAN_ELEMENT_THEORY":"SGP4","FILE":"3921767","TIME_SYSTEM":"UTC","MEAN_MOTION_DDOT":"0.0000000000000","REF_FRAME":"TEME","CLASSIFICATION_TYPE":"U","NORAD_CAT_ID":"44972","PERIAPSIS":"546.431","OBJECT_NAME":"STARLINK-1107","REV_AT_EPOCH":"18769","ELEMENT_SET_NO":"999","SEMIMAJOR_AXIS":"6925.373","CENTER_NAME":"EARTH","ECCENTRICITY":"0.00011660","EPHEMERIS_TYPE":"0","TLE_LINE2":"2 44972  53.0535 175.2190 0001166  94.8969 265.2153 15.06391926187690","RA_OF_ASC_NODE":"175.2190","RCS_SIZE":"LARGE"},{"ELEMENT_SET_NO":"999","SEMIMAJOR_AXIS":"6925.346","CENTER_NAME":"EARTH","REV_AT_EPOCH":"18773","RCS_SIZE":"LARGE","RA_OF_ASC_NODE":"173.8353","ECCENTRICITY":"0.00009470","EPHEMERIS_TYPE":"0","TLE_LINE2":"2 44973  53.0541 173.8353 0000947  94.3348 265.7749 15.06400850187733","MEAN_MOTION_DOT":"-0.00000676","MEAN_MOTION":"15.06400850","OBJECT_ID":"2020-001BM","APOAPSIS":"547.867","ARG_OF_PERICENTER":"94.3348","EPOCH":"2023-05-31T18:15:43.541568","LAUNCH_DATE":"2020-01-07","DECAY_DATE":null,"OBJECT_TYPE":"PAYLOAD","SITE":"AFETR","TLE_LINE1":"1 44973U 20001BM  23151.76092062 -.00000676  00000-0 -26489-4 0  9998","CLASSIFICATION_TYPE":"U","NORAD_CAT_ID":"44973","PERIAPSIS":"546.555","OBJECT_NAME":"STARLINK-1115","GP_ID":"232924968","COUNTRY_CODE":"US","INCLINATION":"53.0541","PERIOD":"95.592","BSTAR":"-0.00002648900000","MEAN_ANOMALY":"265.7749","MEAN_ELEMENT_THEORY":"SGP4","FILE":"3922037","TIME_SYSTEM":"UTC","REF_FRAME":"TEME","MEAN_MOTION_DDOT":"0.0000000000000"},{"RCS_SIZE":"LARGE","RA_OF_ASC_NODE":"134.2496","ECCENTRICITY":"0.00008330","EPHEMERIS_TYPE":"0","TLE_LINE2":"2 45044  53.0548 134.2496 0000833  80.6688 279.4395 15.06399300184056","SEMIMAJOR_AXIS":"6925.351","CENTER_NAME":"EARTH","ELEMENT_SET_NO":"999","REV_AT_EPOCH":"18405","OBJECT_NAME":"STARLINK-1132","CLASSIFICATION_TYPE":"U","NORAD_CAT_ID":"45044","PERIAPSIS":"546.639","FILE":"3922037","TIME_SYSTEM":"UTC","MEAN_MOTION_DDOT":"0.0000000000000","REF_FRAME":"TEME","COUNTRY_CODE":"US","GP_ID":"232923472","INCLINATION":"53.0548","PERIOD":"95.592","BSTAR":"0.00007864000000","MEAN_ANOMALY":"279.4395","MEAN_ELEMENT_THEORY":"SGP4","ARG_OF_PERICENTER":"80.6688","EPOCH":"2023-05-31T16:03:01.768608","MEAN_MOTION":"15.06399300","MEAN_MOTION_DOT":"0.00000890","OBJECT_ID":"2020-006A","APOAPSIS":"547.793","OBJECT_TYPE":"PAYLOAD","SITE":"AFETR","TLE_LINE1":"1 45044U 20006A   23151.66877047  .00000890  00000-0  78640-4 0  9998","LAUNCH_DATE":"2020-01-29","DECAY_DATE":null},{"RCS_SIZE":"LARGE","RA_OF_ASC_NODE":"153.9993","EPHEMERIS_TYPE":"0","TLE_LINE2":"2 45045  53.0539 153.9993 0001015  77.9769 282.1334 15.06398431183786","ECCENTRICITY":"0.00010150","ELEMENT_SET_NO":"999","SEMIMAJOR_AXIS":"6925.353","CENTER_NAME":"EARTH","REV_AT_EPOCH":"18378","PERIAPSIS":"546.515","CLASSIFICATION_TYPE":"U","NORAD_CAT_ID":"45045","OBJECT_NAME":"STARLINK-1120","MEAN_ANOMALY":"282.1334","MEAN_ELEMENT_THEORY":"SGP4","GP_ID":"232924723","COUNTRY_CODE":"US","BSTAR":"0.00008154800000","PERIOD":"95.592","INCLINATION":"53.0539","TIME_SYSTEM":"UTC","REF_FRAME":"TEME","MEAN_MOTION_DDOT":"0.0000000000000","FILE":"3922037","OBJECT_ID":"2020-006B","APOAPSIS":"547.921","MEAN_MOTION_DOT":"0.00000934","MEAN_MOTION":"15.06398431","EPOCH":"2023-05-31T17:18:38.138400","ARG_OF_PERICENTER":"77.9769","DECAY_DATE":null,"LAUNCH_DATE":"2020-01-29","TLE_LINE1":"1 45045U 20006B   23151.72127475  .00000934  00000-0  81548-4 0  9999","OBJECT_TYPE":"PAYLOAD","SITE":"AFETR"}];
